IRIDIUM 39              
1 25042U 97069D   25215.90868229  .00000588  00000+0  14845-3 0  9998
2 25042  86.3944 190.6810 0019127 141.5823 218.6747 14.49264523455872
IRIDIUM 38              
1 25043U 97069E   25215.69119912  .00000408  00000+0  12795-3 0  9996
2 25043  86.3953 213.1724 0001248  29.6322 330.4946 14.38148202452787
IRIDIUM 42              
1 25077U 97077A   25215.75576076  .00000373  00000+0  12078-3 0  9992
2 25077  86.3950 219.3715 0001880  70.4932 289.6468 14.36380721448020
IRIDIUM 44              
1 25078U 97077B   25215.85974903  .00000406  00000+0  12202-3 0  9991
2 25078  86.3973 201.1362 0001373 144.4718 215.6572 14.40271637450561
IRIDIUM 24              
1 25105U 97082B   25215.84077799  .00000382  00000+0  11026-3 0  9990
2 25105  86.3864  60.0764 0009316 283.7490  76.2673 14.42134080450080
IRIDIUM 51              
1 25262U 98018A   25215.56457811  .00034835  00000+0  70136-3 0  9997
2 25262  86.3807  32.3150 0082880  68.3265 292.6791 15.42686410454546
